[{"OBJECT_NAME":"STARLINK-4209","OBJECT_ID":"2022-062AB","EPOCH":"2026-03-09T03:48:18.645696","MEAN_MOTION":15.08833873,"ECCENTRICITY":0.00016098,"INCLINATION":53.2185,"RA_OF_ASC_NODE":26.5084,"ARG_OF_PERICENTER":93.4233,"MEAN_ANOMALY":266.6944,"EPHEMERIS_TYPE":0,"CLASSIFICATION_TYPE":"U","NORAD_CAT_ID":52855,"ELEMENT_SET_NO":999,"REV_AT_EPOCH":20584,"BSTAR":2.9037639e-5,"MEAN_MOTION_DOT":1.74e-6,"MEAN_MOTION_DDOT":0},{"OBJECT_NAME":"POSAT-2","OBJECT_ID":"2025-009DR","EPOCH":"2026-03-09T23:15:20.314368","MEAN_MOTION":15.10404492,"ECCENTRICITY":0.00077103,"INCLINATION":97.4906,"RA_OF_ASC_NODE":146.0095,"ARG_OF_PERICENTER":126.4226,"MEAN_ANOMALY":233.7715,"EPHEMERIS_TYPE":0,"CLASSIFICATION_TYPE":"U","NORAD_CAT_ID":63488,"ELEMENT_SET_NO":999,"REV_AT_EPOCH":5165,"BSTAR":0.0010942248,"MEAN_MOTION_DOT":0.00017957,"MEAN_MOTION_DDOT":0}]
